SL-16 R/B               
1 25400U 98043G   26061.85558772  .00000078  00000+0  51498-4 0  9992
2 25400  98.8243  15.1711 0010550  39.2642 320.9300 14.26047932438011
SL-16 R/B               
1 25407U 98045B   26061.79239831 -.00000238  00000+0 -96012-4 0  9997
2 25407  71.0112 196.0774 0006344  18.8432 341.2924 14.16189648426127
ISS (ZARYA)             
1 25544U 98067A   26061.93054996  .00009325  00000+0  18075-3 0  9992
2 25544  51.6319 105.7724 0008215 150.8374 209.3075 15.48408287555285
CZ-4B R/B               
1 25732U 99025C   26061.96511456  .00000072  00000+0  55380-4 0  9999
2 25732  98.6641 106.4057 0037128   6.0276  64.1457 14.18263744387218
OKEAN-O                 
1 25860U 99039A   26061.75741998  .00000821  00000+0  11460-3 0  9991
2 25860  97.9457 121.7189 0001470  71.5784 288.5588 14.80322247433363
SL-16 R/B               
1 25861U 99039B   26061.74381841  .00000732  00000+0  99659-4 0  9996
2 25861  97.9981 120.8504 0013441 281.0263  78.9437 14.81720143435834
DELTA 2 R/B             
1 25876U 99041E   26061.92882372  .00001709  00000+0  31260-3 0  9998
2 25876  51.7651 328.2833 0502354 328.4737  28.6972 14.11812753362072
HELIOS 1B               
1 25977U 99064A   26061.71885212  .00002212  00000+0  24946-3 0  9991
2 25977  98.1705 323.7571 0002509  84.3567 275.7935 14.87662698684226
TERRA                   
1 25994U 99068A   26061.93193880  .00000531  00000+0  11722-3 0  9991
2 25994  97.9608 115.6244 0002242 168.2978 236.4379 14.61006090394090
SL-16 R/B               
1 26070U 00006B   26061.59408206  .00000261  00000+0  15675-3 0  9995
2 26070  71.0013 112.7581 0017251 199.9346 160.1105 14.15823865347552
TITAN 4B R/B            
1 26474U 00047B   26061.93806196  .00004810  00000+0  30277-3 0  9995
2 26474  67.9882  59.4944 0037926  43.4420 316.9706 15.09482652391898
ENVISAT                 
1 27386U 02009A   26061.85866175  .00000157  00000+0  64556-4 0  9990
2 27386  98.3717  15.6191 0001346  84.9534 290.4970 14.39033896258195
